{"type": "FeatureCollection", "features": [ {"type": "Feature", "properties": {"norad_id": 52984, "name": "COSMOS 2557 (706K)", "group": "gnss", "lat": 26.943610208261234, "lon": -24.621042901779067, "alt_km": 19140.846324130336, "timestamp": "2025-12-05T19:30:25.809251+00:00", "meta": {"OBJECT_NAME": "COSMOS 2557 (706K)", "OBJECT_ID": "2022-075A", "EPOCH": "2025-12-04T08:46:35.993568", "MEAN_MOTION": 2.13101723, "ECCENTRICITY": 0.0013727, "INCLINATION": 64.4144, "RA_OF_ASC_NODE": 321.3461, "ARG_OF_PERICENTER": 276.6628, "MEAN_ANOMALY": 83.1807, "EPHEMERIS_TYPE": 0, "CLASSIFICATION_TYPE": "U", "NORAD_CAT_ID": 52984, "ELEMENT_SET_NO": 999, "REV_AT_EPOCH": 2656, "BSTAR": 0, "MEAN_MOTION_DOT": -4.7e-07, "MEAN_MOTION_DDOT": 0}, "tle": {"line1": "1 52984U 22075A   25338.36569437 -.00000047  00000+0  00000+0 0  9998", "line2": "2 52984  64.4144 321.3461 0013727 276.6628  83.1807  2.13101723 26566"}}, "geometry": {"type": "Point", "coordinates": [-24.621042901779067, 26.943610208261234]}}, {"type": "Feature", "properties": {"norad_id": 54031, "name": "COSMOS 2559 (707K)", "group": "gnss", "lat": 10.01517543171823, "lon": 136.51330885923198, "alt_km": 19101.163712160473, "timestamp": "2025-12-05T19:30:25.809264+00:00", "meta": {"OBJECT_NAME": "COSMOS 2559 (707K)", "OBJECT_ID": "2022-130A", "EPOCH": "2025-12-03T17:10:26.893920", "MEAN_MOTION": 2.13101235, "ECCENTRICITY": 0.00120262, "INCLINATION": 64.3873, "RA_OF_ASC_NODE": 321.4588, "ARG_OF_PERICENTER": 192.7508, "MEAN_ANOMALY": 167.2215, "EPHEMERIS_TYPE": 0, "CLASSIFICATION_TYPE": "U", "NORAD_CAT_ID": 54031, "ELEMENT_SET_NO": 999, "REV_AT_EPOCH": 2452, "BSTAR": 0, "MEAN_MOTION_DOT": -4.4e-07, "MEAN_MOTION_DDOT": 0}, "tle": {"line1": "1 54031U 22130A   25337.71558905 -.00000044  00000+0  00000+0 0  9998", "line2": "2 54031  64.3873 321.4588 0012026 192.7508 167.2215  2.13101235 24525"}}, "geometry": {"type": "Point", "coordinates": [136.51330885923198, 10.01517543171823]}}, {"type": "Feature", "properties": {"norad_id": 54377, "name": "COSMOS 2564 (761)", "group": "gnss", "lat": -59.06937855958344, "lon": 147.13514302326354, "alt_km": 19133.17365033556, "timestamp": "2025-12-05T19:30:25.809276+00:00", "meta": {"OBJECT_NAME": "COSMOS 2564 (761)", "OBJECT_ID": "2022-161A", "EPOCH": "2025-12-03T13:26:12.799104", "MEAN_MOTION": 2.13101952, "ECCENTRICITY": 0.00087056, "INCLINATION": 64.7377, "RA_OF_ASC_NODE": 199.204, "ARG_OF_PERICENTER": 206.235, "MEAN_ANOMALY": 153.818, "EPHEMERIS_TYPE": 0, "CLASSIFICATION_TYPE": "U", "NORAD_CAT_ID": 54377, "ELEMENT_SET_NO": 999, "REV_AT_EPOCH": 2346, "BSTAR": 0, "MEAN_MOTION_DOT": 1.05e-06, "MEAN_MOTION_DDOT": 0}, "tle": {"line1": "1 54377U 22161A   25337.55987036  .00000105  00000+0  00000+0 0  9995", "line2": "2 54377  64.7377 199.2040 0008705 206.2350 153.8180  2.13101952 23460"}}, "geometry": {"type": "Point", "coordinates": [147.13514302326354, -59.06937855958344]}}, {"type": "Feature", "properties": {"norad_id": 55268, "name": "GPS BIII-6  (PRN 28)", "group": "gnss", "lat": -33.102691596342744, "lon": 3.192413824076767, "alt_km": 20194.02450111786, "timestamp": "2025-12-05T19:30:25.809287+00:00", "meta": {"OBJECT_NAME": "GPS BIII-6  (PRN 28)", "OBJECT_ID": "2023-009A", "EPOCH": "2025-12-03T18:12:38.807136", "MEAN_MOTION": 2.00556312, "ECCENTRICITY": 0.00036355, "INCLINATION": 55.1062, "RA_OF_ASC_NODE": 156.1984, "ARG_OF_PERICENTER": 358.5946, "MEAN_ANOMALY": 180.1179, "EPHEMERIS_TYPE": 0, "CLASSIFICATION_TYPE": "U", "NORAD_CAT_ID": 55268, "ELEMENT_SET_NO": 999, "REV_AT_EPOCH": 2132, "BSTAR": 0, "MEAN_MOTION_DOT": 9.9e-07, "MEAN_MOTION_DDOT": 0}, "tle": {"line1": "1 55268U 23009A   25337.75878249  .00000099  00000+0  00000+0 0  9996", "line2": "2 55268  55.1062 156.1984 0003635 358.5946 180.1179  2.00556312 21327"}}, "geometry": {"type": "Point", "coordinates": [3.192413824076767, -33.102691596342744]}}, {"type": "Feature", "properties": {"norad_id": 56564, "name": "BEIDOU-3 G4 (C62)", "group": "gnss", "lat": -0.6075769481068933, "lon": 167.5105894762183, "alt_km": 35773.04746977776, "timestamp": "2025-12-05T19:30:25.809299+00:00", "meta": {"OBJECT_NAME": "BEIDOU-3 G4 (C62)", "OBJECT_ID": "2023-066A", "EPOCH": "2025-12-05T05:53:56.141952", "MEAN_MOTION": 1.0027092, "ECCENTRICITY": 0.00032408, "INCLINATION": 0.8323, "RA_OF_ASC_NODE": 301.4128, "ARG_OF_PERICENTER": 236.5072, "MEAN_ANOMALY": 144.9372, "EPHEMERIS_TYPE": 0, "CLASSIFICATION_TYPE": "U", "NORAD_CAT_ID": 56564, "ELEMENT_SET_NO": 999, "REV_AT_EPOCH": 945, "BSTAR": 0, "MEAN_MOTION_DOT": -9.8e-07, "MEAN_MOTION_DDOT": 0}, "tle": {"line1": "1 56564U 23066A   25339.24578868 -.00000098  00000+0  00000+0 0  9999", "line2": "2 56564   0.8323 301.4128 0003240 236.5072 144.9372  1.00270920  9456"}}, "geometry": {"type": "Point", "coordinates": [167.5105894762183, -0.6075769481068933]}}, {"type": "Feature", "properties": {"norad_id": 56759, "name": "NVS-01 (IRNSS-1J)", "group": "gnss", "lat": -2.3856633424239577, "lon": 136.84650803345696, "alt_km": 35807.45965187646, "timestamp": "2025-12-05T19:30:25.809311+00:00", "meta": {"OBJECT_NAME": "NVS-01 (IRNSS-1J)", "OBJECT_ID": "2023-076A", "EPOCH": "2025-12-05T05:45:11.979072", "MEAN_MOTION": 1.0026634, "ECCENTRICITY": 0.00086949, "INCLINATION": 2.6378, "RA_OF_ASC_NODE": 251.8727, "ARG_OF_PERICENTER": 6.9466, "MEAN_ANOMALY": 31.2955, "EPHEMERIS_TYPE": 0, "CLASSIFICATION_TYPE": "U", "NORAD_CAT_ID": 56759, "ELEMENT_SET_NO": 999, "REV_AT_EPOCH": 917, "BSTAR": 0, "MEAN_MOTION_DOT": -3.22e-06, "MEAN_MOTION_DDOT": 0}, "tle": {"line1": "1 56759U 23076A   25339.23972198 -.00000322  00000+0  00000+0 0  9999", "line2": "2 56759   2.6378 251.8727 0008694   6.9466  31.2955  1.00266340  9174"}}, "geometry": {"type": "Point", "coordinates": [136.84650803345696, -2.3856633424239577]}}, {"type": "Feature", "properties": {"norad_id": 57517, "name": "COSMOS 2569 (703K)", "group": "gnss", "lat": -64.03256045335834, "lon": 7.682770914428826, "alt_km": 19110.893291331806, "timestamp": "2025-12-05T19:30:25.809324+00:00", "meta": {"OBJECT_NAME": "COSMOS 2569 (703K)", "OBJECT_ID": "2023-114A", "EPOCH": "2025-12-01T16:42:34.469856", "MEAN_MOTION": 2.13103822, "ECCENTRICITY": 0.0010109, "INCLINATION": 65.1883, "RA_OF_ASC_NODE": 79.2867, "ARG_OF_PERICENTER": 287.0179, "MEAN_ANOMALY": 72.8703, "EPHEMERIS_TYPE": 0, "CLASSIFICATION_TYPE": "U", "NORAD_CAT_ID": 57517, "ELEMENT_SET_NO": 999, "REV_AT_EPOCH": 1805, "BSTAR": 0, "MEAN_MOTION_DOT": -1.6e-07, "MEAN_MOTION_DDOT": 0}, "tle": {"line1": "1 57517U 23114A   25335.69623229 -.00000016  00000+0  00000+0 0  9999", "line2": "2 57517  65.1883  79.2867 0010109 287.0179  72.8703  2.13103822 18055"}}, "geometry": {"type": "Point", "coordinates": [7.682770914428826, -64.03256045335834]}}, {"type": "Feature", "properties": {"norad_id": 58654, "name": "BEIDOU-3 M28 (C50)", "group": "gnss", "lat": -44.500244021531465, "lon": -68.87439255837917, "alt_km": 21528.297170428275, "timestamp": "2025-12-05T19:30:25.809337+00:00", "meta": {"OBJECT_NAME": "BEIDOU-3 M28 (C50)", "OBJECT_ID": "2023-207A", "EPOCH": "2025-12-03T07:26:02.398272", "MEAN_MOTION": 1.86229561, "ECCENTRICITY": 0.00020314, "INCLINATION": 55.5764, "RA_OF_ASC_NODE": 68.9209, "ARG_OF_PERICENTER": 265.1091, "MEAN_ANOMALY": 94.871, "EPHEMERIS_TYPE": 0, "CLASSIFICATION_TYPE": "U", "NORAD_CAT_ID": 58654, "ELEMENT_SET_NO": 999, "REV_AT_EPOCH": 1319, "BSTAR": 0, "MEAN_MOTION_DOT": -5.1e-07, "MEAN_MOTION_DDOT": 0}, "tle": {"line1": "1 58654U 23207A   25337.30974998 -.00000051  00000+0  00000+0 0  9996", "line2": "2 58654  55.5764  68.9209 0002031 265.1091  94.8710  1.86229561 13199"}}, "geometry": {"type": "Point", "coordinates": [-68.87439255837917, -44.500244021531465]}}, {"type": "Feature", "properties": {"norad_id": 58655, "name": "BEIDOU-3 M26 (C48)", "group": "gnss", "lat": 11.331749431378196, "lon": 76.71407597286347, "alt_km": 21532.13589711629, "timestamp": "2025-12-05T19:30:25.809348+00:00", "meta": {"OBJECT_NAME": "BEIDOU-3 M26 (C48)", "OBJECT_ID": "2023-207B", "EPOCH": "2025-12-03T02:34:45.227424", "MEAN_MOTION": 1.86231091, "ECCENTRICITY": 0.00034591, "INCLINATION": 55.5782, "RA_OF_ASC_NODE": 68.9139, "ARG_OF_PERICENTER": 250.5367, "MEAN_ANOMALY": 109.429, "EPHEMERIS_TYPE": 0, "CLASSIFICATION_TYPE": "U", "NORAD_CAT_ID": 58655, "ELEMENT_SET_NO": 999, "REV_AT_EPOCH": 1317, "BSTAR": 0, "MEAN_MOTION_DOT": -5e-07, "MEAN_MOTION_DDOT": 0}, "tle": {"line1": "1 58655U 23207B   25337.10746791 -.00000050  00000+0  00000+0 0  9992", "line2": "2 58655  55.5782  68.9139 0003459 250.5367 109.4290  1.86231091 13176"}}, "geometry": {"type": "Point", "coordinates": [76.71407597286347, 11.331749431378196]}}, {"type": "Feature", "properties": {"norad_id": 59598, "name": "GSAT0225 (GALILEO 29)", "group": "gnss", "lat": -10.696293498989252, "lon": 98.87229035696171, "alt_km": 23229.655051522343, "timestamp": "2025-12-05T19:30:25.809359+00:00", "meta": {"OBJECT_NAME": "GSAT0225 (GALILEO 29)", "OBJECT_ID": "2024-079A", "EPOCH": "2025-12-04T01:47:23.955648", "MEAN_MOTION": 1.70474518, "ECCENTRICITY": 0.0002, "INCLINATION": 54.9978, "RA_OF_ASC_NODE": 106.5374, "ARG_OF_PERICENTER": 171.9845, "MEAN_ANOMALY": 188.0819, "EPHEMERIS_TYPE": 0, "CLASSIFICATION_TYPE": "U", "NORAD_CAT_ID": 59598, "ELEMENT_SET_NO": 999, "REV_AT_EPOCH": 999, "BSTAR": 0, "MEAN_MOTION_DOT": 1.5e-07, "MEAN_MOTION_DDOT": 0}, "tle": {"line1": "1 59598U 24079A   25338.07458282  .00000015  00000+0  00000+0 0  9999", "line2": "2 59598  54.9978 106.5374 0002000 171.9845 188.0819  1.70474518  9992"}}, "geometry": {"type": "Point", "coordinates": [98.87229035696171, -10.696293498989252]}}]}